ONEWEB-0120             
1 47266U 20100J   25223.55361957 -.00000323  00000+0 -93205-3 0  9994
2 47266  87.8861  52.2278 0001648  88.9371 271.1946 13.12441588224113
ONEWEB-0121             
1 47267U 20100K   25223.54214746 -.00000251  00000+0 -73279-3 0  9996
2 47267  87.8853  52.1988 0001818  85.7915 274.3421 13.12442714224025
ONEWEB-0122             
1 47268U 20100L   25223.53713159 -.00000049  00000+0 -17170-3 0  9991
2 47268  87.8848  52.2031 0001700  83.2247 276.9075 13.12441008223938
ONEWEB-0123             
1 47269U 20100M   25223.53241283  .00000074  00000+0  17136-3 0  9994
2 47269  87.8849  52.2321 0001752  93.1706 266.9623 13.12446778224072
ONEWEB-0124             
1 47270U 20100N   25223.52105529  .00000456  00000+0  12311-2 0  9990
2 47270  87.8860  52.2345 0001948  88.5803 271.5548 13.12442403223951
ONEWEB-0125             
1 47271U 20100P   25223.57457385  .00000134  00000+0  33713-3 0  9999
2 47271  87.8859  52.1872 0001918  95.9744 264.1603 13.12444844224027
ONEWEB-0126             
1 47272U 20100Q   25223.59580948  .00000479  00000+0  12963-2 0  9999
2 47272  87.8867  52.2016 0001655  88.7066 271.4253 13.12443477224093
ONEWEB-0127             
1 47273U 20100R   25223.56158983 -.00000341  00000+0 -98209-3 0  9995
2 47273  87.8860  52.2232 0001625  86.0721 274.0594 13.12443073224115
